OBJECT_NAME,OBJECT_ID,EPOCH,MEAN_MOTION,ECCENTRICITY,INCLINATION,RA_OF_ASC_NODE,ARG_OF_PERICENTER,MEAN_ANOMALY,EPHEMERIS_TYPE,CLASSIFICATION_TYPE,NORAD_CAT_ID,ELEMENT_SET_NO,REV_AT_EPOCH,BSTAR,MEAN_MOTION_DOT,MEAN_MOTION_DDOT
QIANFAN-180,2026-124R,2026-06-17T20:42:36.739008,14.18473966,.00056751,88.9978,1.9561,225.1706,134.9023,0,U,69397,999,191,-.10156308E+1,-.194642E-1,0
QIANFAN-181,2026-124S,2026-06-17T21:19:41.507040,14.12213242,.00068896,88.9978,1.9598,128.7361,231.4442,0,U,69398,999,191,-.10370343E+1,-.1761855E-1,0
QIANFAN-182,2026-124T,2026-06-17T21:05:06.381312,14.14382539,.00036912,88.9978,1.9583,156.2561,203.8797,0,U,69399,999,191,-.10032969E+1,-.1772691E-1,0
QIANFAN OBJECT A,2026-125A,2026-06-17T16:35:25.566432,14.11485234,.00198472,88.9947,280.3937,172.1127,188.0375,0,U,69401,999,177,-.97877852E+0,-.1651562E-1,0
QIANFAN OBJECT B,2026-125B,2026-06-17T11:24:41.178240,14.13777102,.0015306,88.9938,280.4151,171.0731,189.0731,0,U,69402,999,174,-.11737E+1,-.2055229E-1,0
QIANFAN OBJECT C,2026-125C,2026-06-17T16:28:54.920928,14.12461919,.00204249,88.9947,280.3931,164.8771,195.3030,0,U,69403,999,177,-.10260809E+1,-.1754819E-1,0
QIANFAN OBJECT D,2026-125D,2026-06-17T14:40:42.544128,14.13232659,.0016679,88.9948,280.4005,160.6732,199.5090,0,U,69404,999,176,-.10433E+1,-.1824883E-1,0
QIANFAN OBJECT E,2026-125E,2026-06-17T14:37:50.851776,14.13878561,.00173575,88.9946,280.4000,167.7699,192.3913,0,U,69405,999,176,-.10162522E+1,-.1780805E-1,0
QIANFAN OBJECT F,2026-125F,2026-06-17T14:33:39.227328,14.15084907,.0017342,88.9947,280.3997,181.3775,178.7367,0,U,69406,999,176,-.9681E+0,-.1737909E-1,0
QIANFAN OBJECT G,2026-125G,2026-06-17T16:14:22.410528,14.14182121,.00161918,88.9947,280.3920,175.0592,185.0758,0,U,69407,999,177,-.97856114E+0,-.1728094E-1,0
QIANFAN OBJECT H,2026-125H,2026-06-17T14:31:11.693280,14.14683866,.0017185,88.9947,280.3997,173.7543,186.3862,0,U,69408,999,176,-.97667E+0,-.1740134E-1,0
QIANFAN OBJECT J,2026-125J,2026-06-17T16:08:31.402752,14.15188077,.00169043,88.9947,280.3907,175.2815,184.8535,0,U,69409,999,177,-.97738149E+0,-.1756346E-1,0
QIANFAN OBJECT K,2026-125K,2026-06-17T11:01:15.763008,14.16611060,.0018296,88.9945,280.4149,185.8959,174.2016,0,U,69410,999,174,-.96379E+0,-.1776964E-1,0
QIANFAN OBJECT L,2026-125L,2026-06-17T14:20:06.388224,14.17349401,.0012846,88.9947,280.3982,191.7547,168.3344,0,U,69411,999,176,-.94956E+0,-.1773691E-1,0
QIANFAN OBJECT M,2026-125M,2026-06-17T15:59:50.091072,14.17796679,.0013592,88.9945,280.3900,197.0320,163.0414,0,U,69412,999,176,-.95613E+0,-.1819524E-1,0
QIANFAN OBJECT N,2026-125N,2026-06-17T15:58:06.411072,14.18583164,.0013238,88.9946,280.3899,192.0047,168.0828,0,U,69413,999,177,-.93375E+0,-.1783982E-1,0
QIANFAN OBJECT P,2026-125P,2026-06-17T15:56:25.630656,14.18871868,.00123495,88.9947,280.3893,192.1142,167.9753,0,U,69414,999,177,-.91902097E+0,-.1766525E-1,0
QIANFAN OBJECT Q,2026-125Q,2026-06-17T17:37:08.961600,14.19130968,.00085566,88.9946,280.3814,187.5656,172.5406,0,U,69415,999,177,-.94391073E+0,-.1839226E-1,0
QIANFAN OBJECT R,2026-125R,2026-06-17T14:15:16.831584,14.18185467,.00165386,88.9946,280.3979,188.5541,171.5369,0,U,69416,999,176,-.95082983E+0,-.1823161E-1,0
QIANFAN OBJECT S,2026-125S,2026-06-17T17:35:41.291520,14.19142098,.00110078,88.9947,280.3814,176.3462,183.7810,0,U,69417,999,178,-.87204516E+0,-.1690265E-1,0
QIANFAN OBJECT T,2026-125T,2026-06-17T16:09:07.095456,14.15211165,.00164425,88.9947,280.3909,179.0490,181.0732,0,U,69418,999,177,-.96757294E+0,-.1740558E-1,0
STARLINK-37629,2026-127A,2026-06-17T22:00:01.999584,15.80903685,.00008821,53.1589,258.8544,59.3262,132.8523,0,U,69443,999,275,-.2785425E-3,-.55399E-3,0
STARLINK-37509,2026-127B,2026-06-17T22:00:01.999584,15.80893970,.00016514,53.1588,258.8316,60.4740,142.9106,0,U,69444,999,275,-.14860362E-3,-.29958E-3,0
STARLINK-37641,2026-127C,2026-06-17T22:00:01.999584,15.80919992,.00011856,53.1614,258.8142,64.6970,146.9498,0,U,69445,999,275,-.47953719E-3,-.94521E-3,0
STARLINK-37522,2026-127D,2026-06-17T22:00:01.999584,15.80917851,.00008763,53.1587,258.7980,65.0143,154.5754,0,U,69446,999,275,-.48532966E-3,-.95629E-3,0
STARLINK-37640,2026-127E,2026-06-17T22:00:01.999584,15.80894709,.00012063,53.1585,258.7817,66.7128,160.7409,0,U,69447,999,275,-.12045978E-3,-.24431E-3,0
STARLINK-37572,2026-127F,2026-06-17T22:00:01.999584,15.80898441,.00007431,53.1610,258.7472,74.0141,170.0090,0,U,69448,999,275,-.33563427E-3,-.66509E-3,0
STARLINK-37643,2026-127G,2026-06-17T22:00:01.999584,15.80887320,.00009236,53.1611,258.7342,80.5731,169.8431,0,U,69449,999,275,-.20287899E-3,-.40578E-3,0
